[{"OBJECT_NAME":"STARLINK-36819","OBJECT_ID":"2026-038G","EPOCH":"2026-03-07T06:00:00.999648","MEAN_MOTION":15.96177279,"ECCENTRICITY":0.00012218,"INCLINATION":97.2738,"RA_OF_ASC_NODE":76.3504,"ARG_OF_PERICENTER":78.6767,"MEAN_ANOMALY":43.7805,"EPHEMERIS_TYPE":0,"CLASSIFICATION_TYPE":"U","NORAD_CAT_ID":67967,"ELEMENT_SET_NO":999,"REV_AT_EPOCH":280,"BSTAR":-0.0039247699,"MEAN_MOTION_DOT":-0.01597941,"MEAN_MOTION_DDOT":0.0007488747},{"OBJECT_NAME":"STARLINK-36812","OBJECT_ID":"2026-038H","EPOCH":"2026-03-07T06:00:00.999648","MEAN_MOTION":15.96291663,"ECCENTRICITY":0.00013024,"INCLINATION":97.2734,"RA_OF_ASC_NODE":76.3511,"ARG_OF_PERICENTER":81.1747,"MEAN_ANOMALY":44.0873,"EPHEMERIS_TYPE":0,"CLASSIFICATION_TYPE":"U","NORAD_CAT_ID":67968,"ELEMENT_SET_NO":999,"REV_AT_EPOCH":280,"BSTAR":-0.003907631,"MEAN_MOTION_DOT":-0.01600789,"MEAN_MOTION_DDOT":0.0007522732},{"OBJECT_NAME":"STARLINK-36709","OBJECT_ID":"2026-038J","EPOCH":"2026-03-07T06:00:00.999648","MEAN_MOTION":15.96554423,"ECCENTRICITY":0.00012414,"INCLINATION":97.2734,"RA_OF_ASC_NODE":76.3542,"ARG_OF_PERICENTER":78.4536,"MEAN_ANOMALY":53.5242,"EPHEMERIS_TYPE":0,"CLASSIFICATION_TYPE":"U","NORAD_CAT_ID":67969,"ELEMENT_SET_NO":999,"REV_AT_EPOCH":280,"BSTAR":-0.0038046261,"MEAN_MOTION_DOT":-0.015811,"MEAN_MOTION_DDOT":0.00073724407},{"OBJECT_NAME":"STARLINK-36319","OBJECT_ID":"2026-038K","EPOCH":"2026-03-07T06:00:00.999648","MEAN_MOTION":15.96427356,"ECCENTRICITY":0.00013469,"INCLINATION":97.2732,"RA_OF_ASC_NODE":76.3525,"ARG_OF_PERICENTER":79.0237,"MEAN_ANOMALY":49.57,"EPHEMERIS_TYPE":0,"CLASSIFICATION_TYPE":"U","NORAD_CAT_ID":67970,"ELEMENT_SET_NO":999,"REV_AT_EPOCH":277,"BSTAR":-0.0038813571,"MEAN_MOTION_DOT":-0.01601719,"MEAN_MOTION_DDOT":0.00075417917},{"OBJECT_NAME":"STARLINK-36710","OBJECT_ID":"2026-038L","EPOCH":"2026-03-07T06:00:00.999648","MEAN_MOTION":15.96732278,"ECCENTRICITY":0.00012302,"INCLINATION":97.2728,"RA_OF_ASC_NODE":76.3559,"ARG_OF_PERICENTER":85.5258,"MEAN_ANOMALY":50.5515,"EPHEMERIS_TYPE":0,"CLASSIFICATION_TYPE":"U","NORAD_CAT_ID":67971,"ELEMENT_SET_NO":999,"REV_AT_EPOCH":280,"BSTAR":-0.0037827085,"MEAN_MOTION_DOT":-0.01587141,"MEAN_MOTION_DDOT":0.00074390087},{"OBJECT_NAME":"STARLINK-36894","OBJECT_ID":"2026-038M","EPOCH":"2026-03-07T06:00:00.999648","MEAN_MOTION":15.96863475,"ECCENTRICITY":0.00013595,"INCLINATION":97.2724,"RA_OF_ASC_NODE":76.3573,"ARG_OF_PERICENTER":74.9644,"MEAN_ANOMALY":64.502,"EPHEMERIS_TYPE":0,"CLASSIFICATION_TYPE":"U","NORAD_CAT_ID":67972,"ELEMENT_SET_NO":999,"REV_AT_EPOCH":280,"BSTAR":-0.0037369215,"MEAN_MOTION_DOT":-0.01579258,"MEAN_MOTION_DDOT":0.00073809438},{"OBJECT_NAME":"STARLINK-36900","OBJECT_ID":"2026-038N","EPOCH":"2026-03-07T06:00:00.999648","MEAN_MOTION":15.97134915,"ECCENTRICITY":0.00011944,"INCLINATION":97.2724,"RA_OF_ASC_NODE":76.36,"ARG_OF_PERICENTER":82.8431,"MEAN_ANOMALY":63.389,"EPHEMERIS_TYPE":0,"CLASSIFICATION_TYPE":"U","NORAD_CAT_ID":67973,"ELEMENT_SET_NO":999,"REV_AT_EPOCH":280,"BSTAR":-0.0036550773,"MEAN_MOTION_DOT":-0.01567756,"MEAN_MOTION_DDOT":0.00073027184},{"OBJECT_NAME":"STARLINK-36901","OBJECT_ID":"2026-038P","EPOCH":"2026-03-07T06:00:00.999648","MEAN_MOTION":15.96994409,"ECCENTRICITY":0.00013384,"INCLINATION":97.2723,"RA_OF_ASC_NODE":76.3584,"ARG_OF_PERICENTER":78.7336,"MEAN_ANOMALY":63.9405,"EPHEMERIS_TYPE":0,"CLASSIFICATION_TYPE":"U","NORAD_CAT_ID":67974,"ELEMENT_SET_NO":999,"REV_AT_EPOCH":280,"BSTAR":-0.0037023683,"MEAN_MOTION_DOT":-0.01575869,"MEAN_MOTION_DDOT":0.00073619149},{"OBJECT_NAME":"STARLINK-36883","OBJECT_ID":"2026-038Q","EPOCH":"2026-03-07T06:00:00.999648","MEAN_MOTION":15.97703666,"ECCENTRICITY":0.0001319,"INCLINATION":97.2715,"RA_OF_ASC_NODE":76.3659,"ARG_OF_PERICENTER":79.9663,"MEAN_ANOMALY":79.9839,"EPHEMERIS_TYPE":0,"CLASSIFICATION_TYPE":"U","NORAD_CAT_ID":67975,"ELEMENT_SET_NO":999,"REV_AT_EPOCH":280,"BSTAR":-0.0035308448,"MEAN_MOTION_DOT":-0.01562415,"MEAN_MOTION_DDOT":0.00073014662},{"OBJECT_NAME":"STARLINK-36880","OBJECT_ID":"2026-038R","EPOCH":"2026-03-07T06:00:00.999648","MEAN_MOTION":15.97281605,"ECCENTRICITY":0.00013169,"INCLINATION":97.2721,"RA_OF_ASC_NODE":76.3614,"ARG_OF_PERICENTER":82.2302,"MEAN_ANOMALY":67.4532,"EPHEMERIS_TYPE":0,"CLASSIFICATION_TYPE":"U","NORAD_CAT_ID":67976,"ELEMENT_SET_NO":999,"REV_AT_EPOCH":280,"BSTAR":-0.0036341896,"MEAN_MOTION_DOT":-0.01571307,"MEAN_MOTION_DDOT":0.00073451057},{"OBJECT_NAME":"STARLINK-36904","OBJECT_ID":"2026-038S","EPOCH":"2026-03-07T06:00:00.999648","MEAN_MOTION":15.97558451,"ECCENTRICITY":0.00013545,"INCLINATION":97.2714,"RA_OF_ASC_NODE":76.364,"ARG_OF_PERICENTER":78.2572,"MEAN_ANOMALY":78.2572,"EPHEMERIS_TYPE":0,"CLASSIFICATION_TYPE":"U","NORAD_CAT_ID":67977,"ELEMENT_SET_NO":999,"REV_AT_EPOCH":280,"BSTAR":-0.0035593808,"MEAN_MOTION_DOT":-0.01562555,"MEAN_MOTION_DDOT":0.00072911616},{"OBJECT_NAME":"STARLINK-36364","OBJECT_ID":"2026-038T","EPOCH":"2026-03-07T06:00:00.999648","MEAN_MOTION":15.98042669,"ECCENTRICITY":0.0001296,"INCLINATION":97.2707,"RA_OF_ASC_NODE":76.3691,"ARG_OF_PERICENTER":75.0611,"MEAN_ANOMALY":92.9704,"EPHEMERIS_TYPE":0,"CLASSIFICATION_TYPE":"U","NORAD_CAT_ID":67978,"ELEMENT_SET_NO":999,"REV_AT_EPOCH":280,"BSTAR":-0.0034819996,"MEAN_MOTION_DOT":-0.0156971,"MEAN_MOTION_DDOT":0.00073922496},{"OBJECT_NAME":"STARLINK-36359","OBJECT_ID":"2026-038U","EPOCH":"2026-03-07T06:00:00.999648","MEAN_MOTION":15.97399285,"ECCENTRICITY":0.00012794,"INCLINATION":97.2717,"RA_OF_ASC_NODE":76.362,"ARG_OF_PERICENTER":80.6591,"MEAN_ANOMALY":71.9151,"EPHEMERIS_TYPE":0,"CLASSIFICATION_TYPE":"U","NORAD_CAT_ID":67979,"ELEMENT_SET_NO":999,"REV_AT_EPOCH":280,"BSTAR":-0.0036194468,"MEAN_MOTION_DOT":-0.01574977,"MEAN_MOTION_DDOT":0.00073864257},{"OBJECT_NAME":"STARLINK-36882","OBJECT_ID":"2026-038V","EPOCH":"2026-03-07T06:00:00.999648","MEAN_MOTION":15.97884874,"ECCENTRICITY":0.00012309,"INCLINATION":97.271,"RA_OF_ASC_NODE":76.3672,"ARG_OF_PERICENTER":84.6622,"MEAN_ANOMALY":79.5243,"EPHEMERIS_TYPE":0,"CLASSIFICATION_TYPE":"U","NORAD_CAT_ID":67980,"ELEMENT_SET_NO":999,"REV_AT_EPOCH":280,"BSTAR":-0.0034968397,"MEAN_MOTION_DOT":-0.01562828,"MEAN_MOTION_DDOT":0.00073194848},{"OBJECT_NAME":"STARLINK-36874","OBJECT_ID":"2026-038W","EPOCH":"2026-03-07T06:00:00.999648","MEAN_MOTION":15.98152212,"ECCENTRICITY":0.00014196,"INCLINATION":97.2708,"RA_OF_ASC_NODE":76.3702,"ARG_OF_PERICENTER":78.5663,"MEAN_ANOMALY":92.2795,"EPHEMERIS_TYPE":0,"CLASSIFICATION_TYPE":"U","NORAD_CAT_ID":67981,"ELEMENT_SET_NO":999,"REV_AT_EPOCH":280,"BSTAR":-0.0034299009,"MEAN_MOTION_DOT":-0.01555786,"MEAN_MOTION_DDOT":0.0007279602},{"OBJECT_NAME":"STARLINK-36879","OBJECT_ID":"2026-038X","EPOCH":"2026-03-07T06:00:00.999648","MEAN_MOTION":15.98295572,"ECCENTRICITY":0.000136,"INCLINATION":97.2704,"RA_OF_ASC_NODE":76.3717,"ARG_OF_PERICENTER":80.5963,"MEAN_ANOMALY":93.6861,"EPHEMERIS_TYPE":0,"CLASSIFICATION_TYPE":"U","NORAD_CAT_ID":67982,"ELEMENT_SET_NO":999,"REV_AT_EPOCH":280,"BSTAR":-0.0033980276,"MEAN_MOTION_DOT":-0.01553595,"MEAN_MOTION_DDOT":0.00072719876}]
